COMMENT,ORIGINATOR,NORAD_CAT_ID,OBJECT_NAME,OBJECT_TYPE,CLASSIFICATION_TYPE,INTLDES,EPOCH,EPOCH_MICROSECONDS,MEAN_MOTION,ECCENTRICITY,INCLINATION,RA_OF_ASC_NODE,ARG_OF_PERICENTER,MEAN_ANOMALY,EPHEMERIS_TYPE,ELEMENT_SET_NO,REV_AT_EPOCH,BSTAR,MEAN_MOTION_DOT,MEAN_MOTION_DDOT,FILE,TLE_LINE0,TLE_LINE1,TLE_LINE2,OBJECT_ID,OBJECT_NUMBER,SEMIMAJOR_AXIS,PERIOD,APOGEE,PERIGEE
"GENERATED VIA SPACETRACK.ORG API","JSPOC","31124","SAUDICOMSAT 5","PAYLOAD","U","07012H","2016-01-11 21:26:15","708768","14.63070324","0.0050666","97.8432","357.0987","240.3841","119.231","0","999","46617","5.2455e-05","2.27e-06","0","1979502","0 SAUDICOMSAT 5","1 31124U 07012H   16011.89323737 +.00000227 +00000-0 +52455-4 0  9998","2 31124 097.8432 357.0987 0050666 240.3841 119.2310 14.63070324466171","2007-012H","31124","7061.414","98.423","719.056","647.502"
"GENERATED VIA SPACETRACK.ORG API","JSPOC","13719","SL-3 R/B","ROCKET BODY","U","82116B","2016-01-11 21:26:37","852224","14.14568578","0.0072334","81.2548","152.0073","43.2993","117.4633","0","999","70652","2.8321e-05","6.9e-07","0","1979163","0 SL-3 R/B","1 13719U 82116B   16011.89349366  .00000069  00000-0  28321-4 0  9991","2 13719  81.2548 152.0073 0072334  43.2993 117.4633 14.14568578706522","1982-116B","13719","7221.917","101.797","896.021","791.543"
"GENERATED VIA SPACETRACK.ORG API","JSPOC","25417","ORBCOMM FM 16","PAYLOAD","U","98046E","2016-01-11 21:26:46","42080","14.32158775","0.0002545","44.9971","194.9951","58.0526","302.0567","0","999","90995","0.00010342","1.41e-06","0","1979502","0 ORBCOMM FM 16","1 25417U 98046E   16011.89358845 +.00000141 +00000-0 +10342-3 0  9994","2 25417 044.9971 194.9951 0002545 058.0526 302.0567 14.32158775909953","1998-046E","25417","7162.660","100.547","786.348","782.703"
"GENERATED VIA SPACETRACK.ORG API","JSPOC","6991","COSMOS 623","PAYLOAD","U","73104G","2016-01-11 21:26:58","254720","12.56900287","0.0061976","74.0298","84.9729","120.3857","0.0161","0","999","93002","0.00011915","4e-08","0","1979502","0 COSMOS 623","1  6991U 73104G   16011.89372980 +.00000004 +00000-0 +11915-3 0  9999","2  6991 074.0298 084.9729 0061976 120.3857 000.0161 12.56900287930023","1973-104G","6991","7813.901","114.567","1484.194","1387.339"
"GENERATED VIA SPACETRACK.ORG API","JSPOC","17304","SL-8 R/B","ROCKET BODY","U","87006B","2016-01-11 21:27:03","916512","14.3754785","0.0030922","74.0602","330.6083","298.9561","60.8493","0","999","51802","3.1381e-05","6.8e-07","0","1979502","0 SL-8 R/B","1 17304U 87006B   16011.89379533 +.00000068 +00000-0 +31381-4 0  9996","2 17304 074.0602 330.6083 0030922 298.9561 060.8493 14.37547850518025","1987-006B","17304","7144.748","100.170","788.706","744.520"
"GENERATED VIA SPACETRACK.ORG API","JSPOC","38735","YUBELEINY 2","PAYLOAD","U","12041C","2016-01-11 21:27:13","662432","12.42570375","0.0017818","82.4768","289.8382","84.2546","276.0561","0","999","15683","0.00021992","4e-07","0","1979322","0 YUBELEINY 2","1 38735U 12041C   16011.89390813  .00000040  00000-0  21992-3 0  9994","2 38735  82.4768 289.8382 0017818  84.2546 276.0561 12.42570375156833","2012-041C","38735","7873.862","115.888","1509.757","1481.698"
"GENERATED VIA SPACETRACK.ORG API","JSPOC","12636","COSMOS 1287","PAYLOAD","U","81074A","2016-01-11 21:27:15","743808","12.44304778","0.0031279","74.0315","171.3682","276.873","238.0238","0","999","56481","-0.00011991","-3.3e-07","0","1979101","0 COSMOS 1287","1 12636U 81074A   16011.89393222 -.00000033  00000-0 -11991-3 0  9997","2 12636  74.0315 171.3682 0031279 276.8730 238.0238 12.44304778564813","1981-074A","12636","7866.544","115.727","1513.015","1463.803"
"GENERATED VIA SPACETRACK.ORG API","JSPOC","16758","COSMOS 1748","PAYLOAD","U","86042A","2016-01-11 21:27:19","617984","12.50733777","0.0009679","74.0201","326.7179","60.1285","329.398","0","999","35154","2.5646e-06","-1.5e-07","0","1979502","0 COSMOS 1748","1 16758U 86042A   16011.89397706 -.00000015 +00000-0 +25646-5 0  9990","2 16758 074.0201 326.7179 0009679 060.1285 329.3980 12.50733777351545","1986-042A","16758","7839.564","115.132","1469.017","1453.841"
"GENERATED VIA SPACETRACK.ORG API","JSPOC","15475","SL-14 R/B","ROCKET BODY","U","85003G","2016-01-11 21:27:27","229824","12.55150891","0.0038475","82.6122","109.4149","84.599","343.8371","0","999","41962","9.0989e-05","2.6e-07","0","1979502","0 SL-14 R/B","1 15475U 85003G   16011.89406516 +.00000026 +00000-0 +90989-4 0  9993","2 15475 082.6122 109.4149 0038475 084.5990 343.8371 12.55150891419623","1985-003G","15475","7821.160","114.727","1473.117","1412.933"
"GENERATED VIA SPACETRACK.ORG API","JSPOC","23230","ETS 6","PAYLOAD","U","94056A","2016-01-11 21:27:31","828896","1.67092359","0.5020398","12.4844","180.8135","324.5501","9.2306","0","999","13057","0","-8.5e-07","0","1979214","0 ETS 6","1 23230U 94056A   16011.89411839 -.00000085  00000-0  00000+0 0  9999","2 23230  12.4844 180.8135 5020398 324.5501   9.2306  1.67092359130576","1994-056A","23230","29998.355","861.798","38680.588","8559.852"
"GENERATED VIA SPACETRACK.ORG API","JSPOC","23230","ETS 6","PAYLOAD","U","94056A","2016-01-11 21:27:31","828896","1.67092359","0.5020398","12.4844","180.8135","324.5501","9.2306","0","999","13057","0","-8.5e-07","0","1979502","0 ETS 6","1 23230U 94056A   16011.89411839 -.00000085 +00000-0 +00000-0 0  9990","2 23230 012.4844 180.8135 5020398 324.5501 009.2306 01.67092359130576","1994-056A","23230","29998.355","861.798","38680.588","8559.852"
"GENERATED VIA SPACETRACK.ORG API","JSPOC","3530","COSMOS 252","PAYLOAD","U","68097A","2016-01-11 21:27:33","396192","12.87369033","0.0992741","62.3247","138.5318","352.7932","5.9626","0","999","21545","1.3078e-05","-7.6e-07","0","1979502","0 COSMOS 252","1  3530U 68097A   16011.89413653 -.00000076 +00000-0 +13078-4 0  9996","2  3530 062.3247 138.5318 0992741 352.7932 005.9626 12.87369033215456","1968-097A","3530","7690.120","111.856","2075.415","548.555"
"GENERATED VIA SPACETRACK.ORG API","JSPOC","7800","SL-6 R/B(2)","ROCKET BODY","U","75036D","2016-01-11 21:27:41","211936","1.96664159","0.7454608","62.2257","310.3185","256.5622","18.3407","0","999","29223","0.00057031","1.373e-05","0","1979855","0 SL-6 R/B(2)","1  7800U 75036D   16011.89422699 +.00001373 +00000-0 +57031-3 0  9997","2  7800 062.2257 310.3185 7454608 256.5622 018.3407 01.96664159292232","1975-036D","7800","26910.288","732.212","40592.719","471.588"
"GENERATED VIA SPACETRACK.ORG API","JSPOC","25394","RESURS O1-N4","PAYLOAD","U","98043A","2016-01-11 21:27:49","379328","14.24466803","0.000216","98.4953","324.7473","52.9604","339.413","0","999","90997","1.2921e-05","-1.2e-07","0","1979502","0 RESURS O1-N4","1 25394U 98043A   16011.89432152 -.00000012 +00000-0 +12921-4 0  9993","2 25394 098.4953 324.7473 0002160 052.9604 339.4130 14.24466803909973","1998-043A","25394","7188.422","101.090","811.840","808.735"
"GENERATED VIA SPACETRACK.ORG API","JSPOC","38256","TIANHUI 1-02","PAYLOAD","U","12020A","2016-01-11 21:27:58","649184","15.23170677","0.0012677","97.4963","138.8973","263.9393","249.2121","0","999","20485","0.00012897","2.981e-05","0","1979502","0 TIANHUI 1-02","1 38256U 12020A   16011.89442881 +.00002981 +00000-0 +12897-3 0  9992","2 38256 097.4963 138.8973 0012677 263.9393 249.2121 15.23170677204850","2012-020A","38256","6874.421","94.539","505.000","487.571"
"GENERATED VIA SPACETRACK.ORG API","JSPOC","12983","SL-8 R/B","ROCKET BODY","U","81116J","2016-01-11 21:28:07","104288","12.24759627","0.0113623","73.9839","350.6199","93.542","292.3978","0","999","26003","-0.0004841","-6.9e-07","0","1979502","0 SL-8 R/B","1 12983U 81116J   16011.89452667 -.00000069 +00000-0 -48410-3 0  9993","2 12983 073.9839 350.6199 0113623 093.5420 292.3978 12.24759627260032","1981-116J","12983","7950.014","117.574","1662.210","1481.549"
"GENERATED VIA SPACETRACK.ORG API","JSPOC","39410","YAOGAN 19","PAYLOAD","U","13065A","2016-01-11 21:28:11","64","13.14950796","0.0003919","100.3929","87.0335","186.597","173.5082","0","999","10288","0.00017837","2.2e-07","0","1979502","0 YAOGAN 19","1 39410U 13065A   16011.89457176 +.00000022 +00000-0 +17837-3 0  9991","2 39410 100.3929 087.0335 0003919 186.5970 173.5082 13.14950796102887","2013-065A","39410","7582.204","109.509","1207.041","1201.098"
"GENERATED VIA SPACETRACK.ORG API","JSPOC","40536","KOMPSAT 3A","PAYLOAD","U","15014A","2016-01-11 21:28:13","267200","15.12340588","0.0013003","97.5414","313.2277","10.136","26.2428","0","999","4412","0.00013702","2.313e-05","0","1979153","0 KOMPSAT 3A","1 40536U 15014A   16011.89459800  .00002313  00000-0  13702-3 0  9996","2 40536  97.5414 313.2277 0013003  10.1360  26.2428 15.12340588 44125","2015-014A","40536","6907.201","95.216","538.047","520.084"
"GENERATED VIA SPACETRACK.ORG API","JSPOC","20432","COSMOS 2056","PAYLOAD","U","90004A","2016-01-11 21:28:31","182240","14.33201898","0.0022943","74.0339","292.7184","193.592","166.4616","0","999","35788","3.2812e-05","6.4e-07","0","1979502","0 COSMOS 2056","1 20432U 90004A   16011.89480535 +.00000064 +00000-0 +32812-4 0  9995","2 20432 074.0339 292.7184 0022943 193.5920 166.4616 14.33201898357881","1990-004A","20432","7159.185","100.474","797.475","764.624"
"GENERATED VIA SPACETRACK.ORG API","JSPOC","21655","METEOR 3-5","PAYLOAD","U","91056A","2016-01-11 21:28:32","903328","13.17072737","0.001235","82.5583","311.051","305.3976","54.5992","0","999","17326","0.00041602","1.72e-06","0","1979502","0 METEOR 3-5","1 21655U 91056A   16011.89482527 +.00000172 +00000-0 +41602-3 0  9990","2 21655 082.5583 311.0510 0012350 305.3976 054.5992 13.17072737173268","1991-056A","21655","7574.058","109.333","1205.277","1186.569"
